[
  {"id": 1,"district_id": 1, "name": "Barura","bn_name":"বরুড়া"},
  {"id": 2,"district_id": 1, "name": "Brahmanpara","bn_name":"ব্রাহ্মণপাড়া"},
  {"id": 3,"district_id": 1, "name": "Burichang","bn_name":"বুড়িচং"},
  {"id": 4,"district_id": 1, "name": "Chandina","bn_name":"চান্দিনা"},
  {"id": 5,"district_id": 1, "name": "Chauddagram","bn_name":"চৌদ্দগ্রাম"},
  {"id": 6,"district_id": 1, "name": "Comilla Adarsha Sadar","bn_name":"কুমিল্লা আদর্শ সদর"},
  {"id": 7,"district_id": 1, "name": "Comilla Sadar Dakshin","bn_name":"কুমিল্লা সদর দক্ষিণ"},
  {"id": 8,"district_id": 1, "name": "Daudkandi","bn_name":"দাউদকান্দি"},
  {"id": 9,"district_id": 1, "name": "Daudkandi","bn_name":"দেবিদ্বার"},
  {"id": 10,"district_id": 1, "name": "Homna","bn_name":"হোমনা"},
  {"id": 11,"district_id": 1, "name": "Laksham","bn_name":"লাকসাম"},
  {"id": 12,"district_id": 1, "name": "Manoharganj","bn_name":"মনোহরগঞ্জ"},
  {"id": 13,"district_id": 1, "name": "Meghna","bn_name":"মেঘনা"},
  {"id": 14,"district_id": 1, "name": "Muradnagar","bn_name":"মুরাদনগর"},
  {"id": 15,"district_id": 1, "name": "Muradnagar","bn_name":"নাঙ্গলকোট"},
  {"id": 16,"district_id": 1, "name": "Titas","bn_name":"তিতাস"},

  {"id": 17,"district_id": 2, "name": "Chhagalnaiya","bn_name":"ছাগলনাইয়া"},
  {"id": 18,"district_id": 2, "name": "Daganbhuiyan","bn_name":"দাগনভূঁইয়া"},
  {"id": 19,"district_id": 2, "name": "Feni Sadar","bn_name":"ফেনী সদর"},
  {"id": 20,"district_id": 2, "name": "Fulgazi","bn_name":"ফুলগাজী"},
  {"id": 21,"district_id": 2, "name": "Parshuram","bn_name":"পরশুরাম"},
  {"id": 22,"district_id": 2, "name": "Sonagazi","bn_name":"সোনাগাজী"},

  {"id": 23,"district_id": 3, "name": "Akhaura","bn_name":"আখাউড়া"},
  {"id": 24,"district_id": 3, "name": "Ashuganj","bn_name":"আশুগঞ্জ"},
  {"id": 25,"district_id": 3, "name": "Bancharampur","bn_name":"বাঞ্ছারামপুর"},
  {"id": 26,"district_id": 3, "name": "Bijoynagar","bn_name":"বিজয়নগর"},
  {"id": 27,"district_id": 3, "name": "Brahmanbaria Sadar","bn_name":"ব্রাহ্মণবাড়িয়া সদর"},
  {"id": 28,"district_id": 3, "name": "Kasba","bn_name":"কসবা"},
  {"id": 29,"district_id": 3, "name": "Nabinagar","bn_name":"নবীনগর"},
  {"id": 30,"district_id": 3, "name": "Nasirnagar","bn_name":"নাসিরনগর"},
  {"id": 31,"district_id": 3, "name": "Sarail","bn_name":"সরাইল"},

  {"id": 32,"district_id": 4, "name": "Baghaichhari","bn_name":"বাঘাইছড়ি"},
  {"id": 33,"district_id": 4, "name": "Barkal","bn_name":"বরকল"},
  {"id": 34,"district_id": 4, "name": "Belaichhari","bn_name":"বেলাইছড়ি"},
  {"id": 35,"district_id": 4, "name": "Juraichhari","bn_name":"জুরাইছড়ি"},
  {"id": 36,"district_id": 4, "name": "Kaptai","bn_name":"কাপ্তাই"},
  {"id": 37,"district_id": 4, "name": "Kawkhali","bn_name":"কাউখালী"},
  {"id": 38,"district_id": 4, "name": "Langadu","bn_name":"লংগাডু"},
  {"id": 39,"district_id": 4, "name": "Naniarchar","bn_name":"নানিয়ারচর"},
  {"id": 40,"district_id": 4, "name": "Rajasthali","bn_name":"রাজস্থলী"},
  {"id": 41,"district_id": 4, "name": "Rangamati Sadar","bn_name":"রাঙ্গামাটি সদর"},

  {"id": 42,"district_id": 5, "name": "Begumganj","bn_name":"বেগমগঞ্জ"},
  {"id": 43,"district_id": 5, "name": "Chatkhil","bn_name":"চাটখিল"},
  {"id": 44,"district_id": 5, "name": "Companiganj","bn_name":"কোম্পানীগঞ্জ"},
  {"id": 45,"district_id": 5, "name": "Hatiya","bn_name":"হাতিয়া"},
  {"id": 46,"district_id": 5, "name": "Kabirhat","bn_name":"কবিরহাট"},
  {"id": 47,"district_id": 5, "name": "Noakhali Sadar","bn_name":"নোয়াখালী সদর"},
  {"id": 48,"district_id": 5, "name": "Senbagh","bn_name":"সেনবাগ"},
  {"id": 49,"district_id": 5, "name": "Sonaimuri","bn_name":"সোনাইমুর"},
  {"id": 50,"district_id": 5, "name": "Subarnachar","bn_name":"সুবর্ণচর"},

  {"id": 51,"district_id": 6, "name": "Chandpur Sadar","bn_name":"চাঁদপুর সদর"},
  {"id": 52,"district_id": 6, "name": "Faridganj","bn_name":"ফরিদগঞ্জ"},
  {"id": 53,"district_id": 6, "name": "Haimchar","bn_name":"হাইমচর"},
  {"id": 54,"district_id": 6, "name": "Hajiganj","bn_name":"হাজীগঞ্জ"},
  {"id": 55,"district_id": 6, "name": "Kachua","bn_name":"কচুয়া"},
  {"id": 56,"district_id": 6, "name": "Matlab Dakshin","bn_name":"মতলব দক্ষিণ"},
  {"id": 57,"district_id": 6, "name": "Matlab Uttar","bn_name":"মতলব উত্তর"},
  {"id": 58,"district_id": 6, "name": "Shahrasti","bn_name":"শাহরাস্তি"},

  {"id": 59,"district_id": 7, "name": "Kamalnagar","bn_name":"কমলনগর"},
  {"id": 60,"district_id": 7, "name": "Lakshmipur Sadar","bn_name":"লক্ষ্মীপুর সদর"},
  {"id": 61,"district_id": 7, "name": "Raipur","bn_name":"রায়পুর"},
  {"id": 62,"district_id": 7, "name": "Ramganj","bn_name":"রামগঞ্জ"},
  {"id": 63,"district_id": 7, "name": "Ramgati","bn_name":"রামগতি"},

  {"id": 64,"district_id": 8, "name": "Anowara","bn_name":"আনোয়ারা"},
  {"id": 65,"district_id": 8, "name": "Bakalia","bn_name":"বাকালিয়া"},
  {"id": 66,"district_id": 8, "name": "Bandar","bn_name":"বান্দর"},
  {"id": 67,"district_id": 8, "name": "Banshkhali","bn_name":"বাঁশখালী"},
  {"id": 68,"district_id": 8, "name": "Bayejid","bn_name":"বায়েজিদ"},
  {"id": 69,"district_id": 8, "name": "Boalkhali","bn_name":"বোয়ালখালী"},
  {"id": 70,"district_id": 8, "name": "Chandanaish","bn_name":"চন্দনাইশ"},
  {"id": 71,"district_id": 8, "name": "Chandgaon","bn_name":"চান্দগাঁও"},
  {"id": 72,"district_id": 8, "name": "Double Mooring","bn_name":"ডবল মুরিং"},
  {"id": 73,"district_id": 8, "name": "Fatikchhari","bn_name":"ফটিকছড়ি"},
  {"id": 74,"district_id": 8, "name": "Halishahar","bn_name":"হালিশহর"},
  {"id": 75,"district_id": 8, "name": "Hathazari","bn_name":"হাটহাজারী"},
  {"id": 76,"district_id": 8, "name": "Khulshi","bn_name":"খুলশী"},
  {"id": 77,"district_id": 8, "name": "Kotwali","bn_name":"কোতোয়ালি"},
  {"id": 78,"district_id": 8, "name": "Lohagara","bn_name":"লোহাগাড়া"},
  {"id": 79,"district_id": 8, "name": "Mirsharai","bn_name":"মিরসরাই"},
  {"id": 80,"district_id": 8, "name": "Pahartali","bn_name":"পাহাড়তলী"},
  {"id": 81,"district_id": 8, "name": "Panchlaish","bn_name":"পাঁচলাইশ"},
  {"id": 82,"district_id": 8, "name": "Patenga","bn_name":"পতেঙ্গা"},
  {"id": 83,"district_id": 8, "name": "Patiya","bn_name":"পটিয়া"},
  {"id": 84,"district_id": 8, "name": "Rangunia","bn_name":"রাঙ্গুনিয়া"},
  {"id": 85,"district_id": 8, "name": "Raozan","bn_name":"রাউজান"},
  {"id": 86,"district_id": 8, "name": "Sandwip","bn_name":"সন্দ্বীপ"},
  {"id": 87,"district_id": 8, "name": "Satkania","bn_name":"সাতকানিয়া"},
  {"id": 88,"district_id": 8, "name": "Sitakunda","bn_name":"সীতাকুণ্ড"},

  {"id": 89,"district_id": 9, "name": "Chakaria","bn_name":"চকরিয়া"},
  {"id": 90,"district_id": 9, "name": "Cox's Bazar Sadar","bn_name":"কক্সবাজার সদর"},
  {"id": 91,"district_id": 9, "name": "Kutubdia","bn_name":"কুতুবদিয়া"},
  {"id": 92,"district_id": 9, "name": "Maheshkhali","bn_name":"মহেশখালী"},
  {"id": 93,"district_id": 9, "name": "Pekua","bn_name":"পেকুয়া"},
  {"id": 94,"district_id": 9, "name": "Ramu","bn_name":"রামু"},
  {"id": 95,"district_id": 9, "name": "Teknaf","bn_name":"টেকনাফ"},
  {"id": 96,"district_id": 9, "name": "Ukhia","bn_name":"উখিয়া"},

  {"id": 97,"district_id": 10, "name": "Khagrachhari Sadar","bn_name":"খাগড়াছড়ি সদর"},
  {"id": 98,"district_id": 10, "name": "Lakshmichhari","bn_name":"লক্ষ্মীছড়ি"},
  {"id": 99,"district_id": 10, "name": "Mahalchhari","bn_name":"মহালছড়ি"},
  {"id": 100,"district_id": 10, "name": "Matiranga","bn_name":"মাটিরাঙ্গা"},
  {"id": 101,"district_id": 10, "name": "Panchhari","bn_name":"পানছড়ি"},
  {"id": 102,"district_id": 10, "name": "Ramgarh","bn_name":"রামগড়"},

  {"id": 104,"district_id": 11, "name": "Alikadam","bn_name":"আলীকদম"},
  {"id": 105,"district_id": 11, "name": "Bandarban Sadar","bn_name":"বান্দরবান সদর"},
  {"id": 106,"district_id": 11, "name": "Lama","bn_name":"লামা"},
  {"id": 107,"district_id": 11, "name": "Naikhongchhari","bn_name":"নাইক্ষংছড়ি"},
  {"id": 108,"district_id": 11, "name": "Rowangchhari","bn_name":"রোয়াংছড়ি"},
  {"id": 109,"district_id": 11, "name": "Ruma","bn_name":"রুমা"},
  {"id": 110,"district_id": 11, "name": "Thanchi","bn_name":"থানচি"},

  {"id": 111,"district_id": 12, "name": "Belkuchi","bn_name":"বেলকুচি"},
  {"id": 112,"district_id": 12, "name": "Chauhali","bn_name":"চৌহালী"},
  {"id": 113,"district_id": 12, "name": "Kamarkhanda","bn_name":"কামারখন্দা"},
  {"id": 114,"district_id": 12, "name": "Kazipur","bn_name":"কাজিপুর"},
  {"id": 115,"district_id": 12, "name": "Raiganj","bn_name":"রায়গঞ্জ"},
  {"id": 116,"district_id": 12, "name": "Shahjadpur","bn_name":"শাহজাদপুর"},
  {"id": 117,"district_id": 12, "name": "Sirajganj Sadar","bn_name":"সিরাজগঞ্জ সদর"},
  {"id": 118,"district_id": 12, "name": "Tarash","bn_name":"তাড়াশ"},
  {"id": 119,"district_id": 12, "name": "Ullahpara","bn_name":"উল্লাহপাড়া"},

  {"id": 120,"district_id": 13, "name": "Atgharia","bn_name":"আটঘরিয়া"},
  {"id": 121,"district_id": 13, "name": "Bera","bn_name":"বেরা"},
  {"id": 122,"district_id": 13, "name": "Bhangura","bn_name":"ভাঙ্গুড়া"},
  {"id": 123,"district_id": 13, "name": "Chatmohar","bn_name":"চাটমোহর"},
  {"id": 124,"district_id": 13, "name": "Faridpur","bn_name":"ফরিদপুর"},
  {"id": 125,"district_id": 13, "name": "Ishwardi","bn_name":"ঈশ্বরদী"},
  {"id": 126,"district_id": 13, "name": "Pabna Sadar","bn_name":"পাবনা সদর"},
  {"id": 127,"district_id": 13, "name": "Santhia","bn_name":"সাঁথিয়া"},
  {"id": 128,"district_id": 13, "name": "Sujanagar","bn_name":"সুজানগর"},

  {"id": 129,"district_id": 14, "name": "Adamdighi","bn_name":"আদমদীঘি"},
  {"id": 130,"district_id": 14, "name": "Bogra Sadar","bn_name":"বগুড়া সদর"},
  {"id": 131,"district_id": 14, "name": "Dhunat","bn_name":"ধুনট"},
  {"id": 132,"district_id": 14, "name": "Dupchanchia","bn_name":"দুপচাঁচিয়া"},
  {"id": 133,"district_id": 14, "name": "Gabtali","bn_name":"গাবতলী"},
  {"id": 134,"district_id": 14, "name": "Kahaloo","bn_name":"কাহালু"},
  {"id": 135,"district_id": 14, "name": "Nandigram","bn_name":"নন্দীগ্রাম"},
  {"id": 136,"district_id": 14, "name": "Sariakandi","bn_name":"সারিয়াকান্দি"},
  {"id": 137,"district_id": 14, "name": "Shajahanpur","bn_name":"শাহজাহানপুর"},
  {"id": 138,"district_id": 14, "name": "Sherpur","bn_name":"শেরপুর"},
  {"id": 139,"district_id": 14, "name": "Shibganj","bn_name":"শিবগঞ্জ"},
  {"id": 140,"district_id": 14, "name": "Sonatala","bn_name":"সোনাতলা"},

  {"id": 141,"district_id": 15, "name": "Bagha","bn_name":"বাঘা"},
  {"id": 142,"district_id": 15, "name": "Baghmara","bn_name":"বাঘমারা"},
  {"id": 143,"district_id": 15, "name": "Boalia","bn_name":"বোয়ালিয়া"},
  {"id": 144,"district_id": 15, "name": "Charghat","bn_name":"চারঘাট"},
  {"id": 145,"district_id": 15, "name": "Durgapur","bn_name":"দুর্গাপুর"},
  {"id": 146,"district_id": 15, "name": "Godagari","bn_name":"গোদাগাড়ী"},
  {"id": 147,"district_id": 15, "name": "Motihar","bn_name":"মতিহার"},
  {"id": 148,"district_id": 15, "name": "Mohanpur","bn_name":"মোহনপুর"},
  {"id": 149,"district_id": 15, "name": "Paba","bn_name":"পবা"},
  {"id": 150,"district_id": 15, "name": "Puthia","bn_name":"পুঠিয়া"},
  {"id": 151,"district_id": 15, "name": "Rajpara","bn_name":"রাজপাড়া"},
  {"id": 152,"district_id": 15, "name": "Shah Makhdam","bn_name":"শাহ মখদুম"},
  {"id": 153,"district_id": 15, "name": "Tanore","bn_name":"তানোর"},

  {"id": 154,"district_id": 16, "name": "Bagatipara","bn_name":"বাগাতিপাড়া"},
  {"id": 155,"district_id": 16, "name": "Baraigram","bn_name":"বড়াইগ্রাম"},
  {"id": 156,"district_id": 16, "name": "Gurudaspur","bn_name":"গুরুদাসপুর"},
  {"id": 157,"district_id": 16, "name": "Lalpur","bn_name":"লালপুর"},
  {"id": 158,"district_id": 16, "name": "Natore Sadar","bn_name":"নাটোর সদর"},
  {"id": 159,"district_id": 16, "name": "Singra","bn_name":"সিংড়া"},
  {"id": 160,"district_id": 16, "name": "Naldanga","bn_name":"নলডাঙ্গা"},

  {"id": 161,"district_id": 17, "name": "Akkelpur","bn_name":"আক্কেলপুর"},
  {"id": 162,"district_id": 17, "name": "Joypurhat Sadar","bn_name":"জয়পুরহাট সদর"},
  {"id": 163,"district_id": 17, "name": "Kalai","bn_name":"কালাই"},
  {"id": 164,"district_id": 17, "name": "Khetlal","bn_name":"ক্ষেতলাল"},
  {"id": 165,"district_id": 17, "name": "Panchbibi","bn_name":"পাঁচবিবি"},

  {"id": 166,"district_id": 18, "name": "Bholahat","bn_name":"ভোলাহাট"},
  {"id": 167,"district_id": 18, "name": "Chapai Nawabganj Sadar","bn_name":"চাঁপাই নবাবগঞ্জ সদর"},
  {"id": 168,"district_id": 18, "name": "Gomastapur","bn_name":"গোমস্তাপুর"},
  {"id": 169,"district_id": 18, "name": "Nachole","bn_name":"নাচোলে"},
  {"id": 170,"district_id": 18, "name": "Shibganj","bn_name":"শিবগঞ্জ"},

  {"id": 171,"district_id": 19, "name": "Atrai","bn_name":"আত্রাই"},
  {"id": 172,"district_id": 19, "name": "Badalgachhi","bn_name":"বদলগাছী"},
  {"id": 173,"district_id": 19, "name": "Dhamoirhat","bn_name":"ধামইরহাট"},
  {"id": 174,"district_id": 19, "name": "Mahadebpur","bn_name":"মহাদেবপুর"},
  {"id": 175,"district_id": 19, "name": "Manda","bn_name":"মান্দা"},
  {"id": 176,"district_id": 19, "name": "Naogaon Sadar","bn_name":"নওগাঁ সদর"},
  {"id": 177,"district_id": 19, "name": "Niamatpur","bn_name":"নিয়ামতপুর"},
  {"id": 178,"district_id": 19, "name": "Patnitala","bn_name":"পত্নীতলা"},
  {"id": 179,"district_id": 19, "name": "Porsha","bn_name":"পোরশা"},
  {"id": 180,"district_id": 19, "name": "Raninagar","bn_name":"রাণীনগর"},
  {"id": 181,"district_id": 19, "name": "Sapahar","bn_name":"সাপাহার"},

  {"id": 182,"district_id": 20, "name": "Abhaynagar","bn_name":"অভয়নগর"},
  {"id": 183,"district_id": 20, "name": "Bagherpara","bn_name":"বাঘেরপাড়া"},
  {"id": 184,"district_id": 20, "name": "Chaugachha","bn_name":"চৌগাছা"},
  {"id": 185,"district_id": 20, "name": "Jessore Sadar","bn_name":"যশোর সদর"},
  {"id": 186,"district_id": 20, "name": "Jhikargacha","bn_name":"ঝিকরগাছা"},
  {"id": 187,"district_id": 20, "name": "Keshabpur","bn_name":"কেশবপুর"},
  {"id": 188,"district_id": 20, "name": "Manirampur","bn_name":"মণিরামপুর"},
  {"id": 189,"district_id": 20, "name": "Sharsha","bn_name":"শার্শা"},

  {"id": 190,"district_id": 21, "name": "Assasuni","bn_name":"আসাসুনি"},
  {"id": 191,"district_id": 21, "name": "Debhata","bn_name":"দেবহাটা"},
  {"id": 192,"district_id": 21, "name": "Kalaroa","bn_name":"কলারোয়া"},
  {"id": 193,"district_id": 21, "name": "Kaliganj","bn_name":"কালীগঞ্জ"},
  {"id": 194,"district_id": 21, "name": "Satkhira Sadar","bn_name":"সাতক্ষীরা সদর"},
  {"id": 195,"district_id": 21, "name": "Shyamnagar","bn_name":"শ্যামনগর"},
  {"id": 196,"district_id": 21, "name": "Tala","bn_name":"তালা"},

  {"id": 197,"district_id": 22, "name": "Gangni","bn_name":"গাংনী"},
  {"id": 198,"district_id": 22, "name": "Meherpur Sadar","bn_name":"মেহেরপুর সদর"},
  {"id": 199,"district_id": 22, "name": "Mujibnagar","bn_name":"মুজিবনগর"},

  {"id": 200,"district_id": 23, "name": "Kalia","bn_name":"কালিয়া"},
  {"id": 201,"district_id": 23, "name": "Lohagara","bn_name":"লোহাগাড়া"},
  {"id": 202,"district_id": 23, "name": "Narail Sadar","bn_name":"নড়াইল সদর"},

  {"id": 203,"district_id": 24, "name": "Alamdanga","bn_name":"আলমডাঙ্গা"},
  {"id": 204,"district_id": 24, "name": "Chuadanga Sadar","bn_name":"চুয়াডাঙ্গা সদর"},
  {"id": 205,"district_id": 24, "name": "Damurhuda","bn_name":"দামুড়হুদা"},
  {"id": 206,"district_id": 24, "name": "Jibannagar","bn_name":"জীবননগর"},

  {"id": 207,"district_id": 25, "name": "Bheramara","bn_name":"ভেড়ামারা"},
  {"id": 208,"district_id": 25, "name": "Daulatpur","bn_name":"দৌলতপুর"},
  {"id": 209,"district_id": 25, "name": "Khoksa","bn_name":"খোকসা"},
  {"id": 210,"district_id": 25, "name": "Kumarkhali","bn_name":"কুমারখালী"},
  {"id": 211,"district_id": 25, "name": "Kushtia Sadar","bn_name":"কুষ্টিয়া সদর"},
  {"id": 212,"district_id": 25, "name": "Mirpur","bn_name":"মিরপুর"},

  {"id": 213,"district_id": 26, "name": "Magura Sadar","bn_name":"মাগুরা সদর"},
  {"id": 214,"district_id": 26, "name": "Mohammadpur","bn_name":"মোহাম্মদপুর"},
  {"id": 215,"district_id": 26, "name": "Shalikha","bn_name":"শালিখা"},
  {"id": 216,"district_id": 26, "name": "Sreepur","bn_name":"শ্রীপুর"},

  {"id": 217,"district_id": 27, "name": "Batiaghata","bn_name":"বটিয়াঘাটা"},
  {"id": 218,"district_id": 27, "name": "Dacope","bn_name":"দাকোপ"},
  {"id": 219,"district_id": 27, "name": "Daulatpur","bn_name":"দৌলতপুর"},
  {"id": 220,"district_id": 27, "name": "Dighalia","bn_name":"দীঘলিয়া"},
  {"id": 221,"district_id": 27, "name": "Dumuria","bn_name":"ডুমুরিয়া"},
  {"id": 222,"district_id": 27, "name": "Khalishpur","bn_name":"খালিশপুর"},
  {"id": 223,"district_id": 27, "name": "Khan Jahan Ali","bn_name":"খান জাহান আলী"},
  {"id": 224,"district_id": 27, "name": "Khulna Sadar","bn_name":"খুলনা সদর"},
  {"id": 225,"district_id": 27, "name": "Koyra","bn_name":"কয়রা"},
  {"id": 226,"district_id": 27, "name": "Paikgachha","bn_name":"পাইকগাছা"},
  {"id": 227,"district_id": 27, "name": "Phultala","bn_name":"ফুলতলা"},
  {"id": 228,"district_id": 27, "name": "Rupsa","bn_name":"রূপসা"},
  {"id": 229,"district_id": 27, "name": "Sonadanga","bn_name":"সোনাডাঙ্গা"},
  {"id": 230,"district_id": 27, "name": "Terokhada","bn_name":"তেরোখাদা"},

  {"id": 231,"district_id": 28, "name": "Bagerhat Sadar","bn_name":"বাগেরহাট সদর"},
  {"id": 232,"district_id": 28, "name": "Chitalmari","bn_name":"চিতলমারী"},
  {"id": 233,"district_id": 28, "name": "Fakirhat","bn_name":"ফকিরহাট"},
  {"id": 234,"district_id": 28, "name": "Kachua","bn_name":"কচুয়া"},
  {"id": 235,"district_id": 28, "name": "Mollahat","bn_name":"মোল্লাহাট"},
  {"id": 236,"district_id": 28, "name": "Mongla","bn_name":"মংলা"},
  {"id": 237,"district_id": 28, "name": "Morrelganj","bn_name":"মোরেলগঞ্জ"},
  {"id": 238,"district_id": 28, "name": "Rampal","bn_name":"রামপাল"},
  {"id": 239,"district_id": 28, "name": "Sharankhola","bn_name":"শরণখোলা"},

  {"id": 240,"district_id": 29, "name": "Harinakundu","bn_name":"হরিণাকুন্ডু"},
  {"id": 241,"district_id": 29, "name": "Jhenaidah Sadar","bn_name":"ঝিনাইদহ সদর"},
  {"id": 242,"district_id": 29, "name": "Kaliganj","bn_name":"কালীগঞ্জ"},
  {"id": 243,"district_id": 29, "name": "Kotchandpur","bn_name":"কোটচাঁদপুর"},
  {"id": 244,"district_id": 29, "name": "Maheshpur","bn_name":"মহেশপুর"},
  {"id": 245,"district_id": 29, "name": "Shailkupa","bn_name":"শৈলকুপা"},


  {"id": 246,"district_id": 30, "name": "Jhalakati Sadar","bn_name":"ঝালকাটি সদর"},
  {"id": 247,"district_id": 30, "name": "Kanthalia","bn_name":"কাঁথালিয়া"},
  {"id": 248,"district_id": 30, "name": "Nalchiti","bn_name":"নলছিটি"},
  {"id": 249,"district_id": 30, "name": "Rajapur","bn_name":"রাজাপুর"},

  {"id": 250,"district_id": 31, "name": "Bauphal","bn_name":"বাউফল"},
  {"id": 251,"district_id": 31, "name": "Dashmina","bn_name":"দশমিনা"},
  {"id": 252,"district_id": 31, "name": "Dumki","bn_name":"দুমকি"},
  {"id": 253,"district_id": 31, "name": "Galachipa","bn_name":"গলাচিপা"},
  {"id": 254,"district_id": 31, "name": "Kalapara","bn_name":"কলাপাড়া"},
  {"id": 255,"district_id": 31, "name": "Mirzaganj","bn_name":"মির্জাগঞ্জ"},
  {"id": 256,"district_id": 31, "name": "Patuakhali Sadar","bn_name":"পটুয়াখালী সদর"},

  {"id": 257,"district_id": 32, "name": "Bhandaria","bn_name":"ভান্ডারিয়া"},
  {"id": 258,"district_id": 32, "name": "Kawkhali","bn_name":"কাউখালী"},
  {"id": 259,"district_id": 32, "name": "Mathbaria","bn_name":"মঠবাড়িয়া"},
  {"id": 260,"district_id": 32, "name": "Nazirpur","bn_name":"নাজিরপুর"},
  {"id": 261,"district_id": 32, "name": "Nesarabad","bn_name":"নেছারাবাদ"},
  {"id": 262,"district_id": 32, "name": "Pirojpur Sadar","bn_name":"পিরোজপুর সদর"},
  {"id": 263,"district_id": 32, "name": "Zianagar","bn_name":"জিয়ানগর"},

  {"id": 264,"district_id": 33, "name": "Agailjhara","bn_name":"আগাইলঝাড়া"},
  {"id": 265,"district_id": 33, "name": "Babuganj","bn_name":"বাবুগঞ্জ"},
  {"id": 266,"district_id": 33, "name": "Bakerganj","bn_name":"বাকেরগঞ্জ"},
  {"id": 267,"district_id": 33, "name": "Banaripara","bn_name":"বানারীপাড়া"},
  {"id": 268,"district_id": 33, "name": "Barisal Sadar","bn_name":"বরিশাল সদর"},
  {"id": 269,"district_id": 33, "name": "Gaurnadi","bn_name":"গৌরনদী"},
  {"id": 270,"district_id": 33, "name": "Hizla","bn_name":"হিজলা"},
  {"id": 271,"district_id": 33, "name": "Mehendiganj","bn_name":"মেহেন্দিগঞ্জ"},
  {"id": 272,"district_id": 33, "name": "Muladi","bn_name":"মুলাদি"},
  {"id": 273,"district_id": 33, "name": "Wazirpur","bn_name":"উজিরপুর"},

  {"id": 274,"district_id": 34, "name": "Bhola Sadar","bn_name":"ভোলা সদর"},
  {"id": 275,"district_id": 34, "name": "Burhanuddin","bn_name":"বুরহানউদ্দিন"},
  {"id": 276,"district_id": 34, "name": "Char Fasson","bn_name":"চর ফাসন"},
  {"id": 277,"district_id": 34, "name": "Daulatkhan","bn_name":"দৌলতখান"},
  {"id": 278,"district_id": 34, "name": "Lalmohan","bn_name":"লালমোহন"},
  {"id": 279,"district_id": 34, "name": "Manpura","bn_name":"মনপুরা"},
  {"id": 280,"district_id": 34, "name": "Tazumuddin","bn_name":"তজুমদ্দিন"},

  {"id": 281,"district_id": 35, "name": "Amtali","bn_name":"আমতলী"},
  {"id": 282,"district_id": 35, "name": "Bamna","bn_name":"বামনা"},
  {"id": 283,"district_id": 35, "name": "Barguna Sadar","bn_name":"বরগুনা সদর"},
  {"id": 284,"district_id": 35, "name": "Betagi","bn_name":"বেতাগী"},
  {"id": 285,"district_id": 35, "name": "Patharghata","bn_name":"পাথরঘাটা"},

  {"id": 286,"district_id": 36, "name": "Balaganj","bn_name":"বালাগঞ্জ"},
  {"id": 287,"district_id": 36, "name": "Beani Bazar","bn_name":"বিয়ানী বাজার"},
  {"id": 288,"district_id": 36, "name": "Bishwanath","bn_name":"বিশ্বনাথ"},
  {"id": 289,"district_id": 36, "name": "Companiganj","bn_name":"কোম্পানীগঞ্জ"},
  {"id": 290,"district_id": 36, "name": "Dakshin Surma","bn_name":"দক্ষিণ সুরমা"},
  {"id": 291,"district_id": 36, "name": "Fenchuganj","bn_name":"ফেঞ্চুগঞ্জ"},
  {"id": 292,"district_id": 36, "name": "Golapganj","bn_name":"গোলাপগঞ্জ"},
  {"id": 293,"district_id": 36, "name": "Gowainghat","bn_name":"গোয়াইনঘাট"},
  {"id": 294,"district_id": 36, "name": "Jaintiapur","bn_name":"জৈন্তাপুর"},
  {"id": 295,"district_id": 36, "name": "Kanaighat","bn_name":"কানাইঘাট"},
  {"id": 296,"district_id": 36, "name": "Sylhet Sadar","bn_name":"সিলেট সদর"},
  {"id": 297,"district_id": 36, "name": "Zakiganj","bn_name":"জকিগঞ্জ"},

  {"id": 298,"district_id": 37, "name": "Barlekha","bn_name":"বড়লেখা"},
  {"id": 299,"district_id": 37, "name": "Juri","bn_name":"জুরি"},
  {"id": 300,"district_id": 37, "name": "Kamalganj","bn_name":"কমলগঞ্জ"},
  {"id": 301,"district_id": 37, "name": "Kulaura","bn_name":"কুলাউড়া"},
  {"id": 302,"district_id": 37, "name": "Moulvibazar Sadar","bn_name":"মৌলভীবাজার সদর"},
  {"id": 303,"district_id": 37, "name": "Rajnagar","bn_name":"রাজনগর"},
  {"id": 304,"district_id": 37, "name": "Sreemangal","bn_name":"শ্রীমঙ্গল"},

  {"id": 305,"district_id": 38, "name": "Ajmiriganj","bn_name":"আজমিরীগঞ্জ"},
  {"id": 306,"district_id": 38, "name": "Bahubal","bn_name":"বাহুবল"},
  {"id": 307,"district_id": 38, "name": "Baniachang","bn_name":"বানিয়াচং"},
  {"id": 308,"district_id": 38, "name": "Chunarughat","bn_name":"চুনারুঘাট"},
  {"id": 309,"district_id": 38, "name": "Habiganj Sadar","bn_name":"হবিগঞ্জ সদর"},
  {"id": 310,"district_id": 38, "name": "Lakhai","bn_name":"লাখাই"},
  {"id": 311,"district_id": 38, "name": "Madhabpur","bn_name":"মাধবপুর"},
  {"id": 312,"district_id": 38, "name": "Nabiganj","bn_name":"নবীগঞ্জ"},

  {"id": 313,"district_id": 39, "name": "Bishwambarpur","bn_name":"বিশ্বম্ভরপুর"},
  {"id": 314,"district_id": 39, "name": "Chhatak","bn_name":"ছাতক"},
  {"id": 315,"district_id": 39, "name": "Dakshin Sunamganj","bn_name":"দক্ষিণ সুনামগঞ্জ"},
  {"id": 316,"district_id": 39, "name": "Derai","bn_name":"ডেরাই"},
  {"id": 317,"district_id": 39, "name": "Dharamapasha","bn_name":"ধর্মপাশা"},
  {"id": 318,"district_id": 39, "name": "Dowarabazar","bn_name":"দোয়ারাবাজার"},
  {"id": 319,"district_id": 39, "name": "Jagannathpur","bn_name":"জগন্নাথপুর"},
  {"id": 320,"district_id": 39, "name": "Jamalganj","bn_name":"জামালগঞ্জ"},
  {"id": 321,"district_id": 39, "name": "Shalla","bn_name":"শাল্লা"},
  {"id": 322,"district_id": 39, "name": "Sunamganj Sadar","bn_name":"সুনামগঞ্জ সদর"},
  {"id": 323,"district_id": 39, "name": "Tahirpur","bn_name":"তাহিরপুর"},

  {"id": 324,"district_id": 40, "name": "Belabo","bn_name":"বেলাবো"},
  {"id": 325,"district_id": 40, "name": "Manohardi","bn_name":"মনোহরদী"},
  {"id": 326,"district_id": 40, "name": "Narsingdi Sadar","bn_name":"নরসিংদী সদর"},
  {"id": 327,"district_id": 40, "name": "Palash","bn_name":"পলাশ"},
  {"id": 328,"district_id": 40, "name": "Raipura","bn_name":"রায়পুরা"},
  {"id": 329,"district_id": 40, "name": "Shibpur","bn_name":"শিবপুর"},

  {"id": 330,"district_id": 41, "name": "Gazipur Sadar","bn_name":"গাজীপুর সদর"},
  {"id": 331,"district_id": 41, "name": "Kaliakair","bn_name":"কালিয়াকৈর"},
  {"id": 332,"district_id": 41, "name": "Kaliganj","bn_name":"কালীগঞ্জ"},
  {"id": 333,"district_id": 41, "name": "Kapasia","bn_name":"কাপাসিয়া"},
  {"id": 334,"district_id": 41, "name": "Sripur","bn_name":"শ্রীপুর"},

  {"id": 335,"district_id": 42, "name": "Bhedarganj","bn_name":"ভেদরগঞ্জ"},
  {"id": 336,"district_id": 42, "name": "Damudya","bn_name":"ডামুড্যা"},
  {"id": 337,"district_id": 42, "name": "Gosairhat","bn_name":"গোসাইরহাট"},
  {"id": 338,"district_id": 42, "name": "Naria","bn_name":"নড়িয়া"},
  {"id": 339,"district_id": 42, "name": "Shariatpur Sadar","bn_name":"শরীয়তপুর সদর"},
  {"id": 340,"district_id": 42, "name": "Zajira","bn_name":"জাজিরা"},

  {"id": 341,"district_id": 43, "name": "Araihazar","bn_name":"আড়াইহাজার"},
  {"id": 342,"district_id": 43, "name": "Bandar","bn_name":"বান্দর"},
  {"id": 343,"district_id": 43, "name": "Narayanganj Sadar","bn_name":"নারায়ণগঞ্জ সদর"},
  {"id": 344,"district_id": 43, "name": "Rupganj","bn_name":"রূপগঞ্জ"},
  {"id": 345,"district_id": 43, "name": "Sonargaon","bn_name":"সোনারগাঁও"},

  {"id": 346,"district_id": 44, "name": "Basail","bn_name":"বাসাইল"},
  {"id": 347,"district_id": 44, "name": "Bhuapur","bn_name":"ভূয়াপুর"},
  {"id": 348,"district_id": 44, "name": "Delduar","bn_name":"দেলদুয়ার"},
  {"id": 349,"district_id": 44, "name": "Dhanbari [Madhupur]","bn_name":"ধনবাড়ী [মধুপুর]"},
  {"id": 350,"district_id": 44, "name": "Ghatail","bn_name":"ঘাটাইল"},
  {"id": 351,"district_id": 44, "name": "Gopalpur","bn_name":"গোপালপুর"},
  {"id": 352,"district_id": 44, "name": "Kalihati","bn_name":"কালিহাতী"},
  {"id": 353,"district_id": 44, "name": "Madhupur","bn_name":"মধুপুর"},
  {"id": 354,"district_id": 44, "name": "Mirzapur","bn_name":"মির্জাপুর"},
  {"id": 355,"district_id": 44, "name": "Nagarpur","bn_name":"নাগরপুর"},
  {"id": 356,"district_id": 44, "name": "Sakhipur","bn_name":"সখীপুর"},
  {"id": 357,"district_id": 44, "name": "Tangail Sadar","bn_name":"টাঙ্গাইল সদর"},

  {"id": 358,"district_id": 45, "name": "Austagram","bn_name":"অষ্টগ্রাম"},
  {"id": 359,"district_id": 45, "name": "Bajitpur","bn_name":"বাজিতপুর"},
  {"id": 360,"district_id": 45, "name": "Bhairab","bn_name":"ভৈরব"},
  {"id": 361,"district_id": 45, "name": "Hossainpur","bn_name":"হোসেনপুর"},
  {"id": 362,"district_id": 45, "name": "Itna","bn_name":"ইতনা"},
  {"id": 363,"district_id": 45, "name": "Karimganj","bn_name":"করিমগঞ্জ"},
  {"id": 364,"district_id": 45, "name": "Katiadi","bn_name":"কটিয়াদি"},
  {"id": 365,"district_id": 45, "name": "Kishoreganj Sadar","bn_name":"কিশোরগঞ্জ সদর"},
  {"id": 366,"district_id": 45, "name": "Kuliarchar","bn_name":"কুলিয়ারচর"},
  {"id": 367,"district_id": 45, "name": "Mithamain","bn_name":"মিঠামইন"},
  {"id": 368,"district_id": 45, "name": "Nikli","bn_name":"নিকলি"},
  {"id": 369,"district_id": 45, "name": "Pakundia","bn_name":"পাকুন্দিয়া"},
  {"id": 370,"district_id": 45, "name": "Tarail","bn_name":"তাড়াইল"},

  {"id": 371,"district_id": 46, "name": "Daulatpur","bn_name":"দৌলতপুর"},
  {"id": 372,"district_id": 46, "name": "Ghior","bn_name":"ঘিওর"},
  {"id": 373,"district_id": 46, "name": "Harirampur","bn_name":"হরিরামপুর"},
  {"id": 374,"district_id": 46, "name": "Manikganj Sadar","bn_name":"মানিকগঞ্জ সদর"},
  {"id": 375,"district_id": 46, "name": "Saturia","bn_name":"সাটুরিয়া"},
  {"id": 376,"district_id": 46, "name": "Shibalaya","bn_name":"শিবালয়"},
  {"id": 377,"district_id": 46, "name": "Singair","bn_name":"সিঙ্গাইর"},

  {"id": 378,"district_id": 47, "name": "Adabor [Mohammadpur]","bn_name":"আদাবর [মোহাম্মদপুর]"},
  {"id": 379,"district_id": 47, "name": "Badda","bn_name":"বাড্ডা"},
  {"id": 380,"district_id": 47, "name": "Bangshal [Kotwali]","bn_name":"বংশাল [কোতোয়ালি]"},
  {"id": 381,"district_id": 47, "name": "Biman Bandar [Airport]","bn_name":"বিমান বন্দর [বিমানবন্দর]"},
  {"id": 382,"district_id": 47, "name": "Cantonment","bn_name":"ক্যান্টনমেন্ট"},
  {"id": 383,"district_id": 47, "name": "Chawkbazar [Lalbagh]","bn_name":"চকবাজার [লালবাগ]"},
  {"id": 384,"district_id": 47, "name": "Dakshinkhan [Uttara]","bn_name":"দক্ষিণখান [উত্তরা]"},
  {"id": 385,"district_id": 47, "name": "Darus Salam [Mirpur]","bn_name":"দারুস সালাম [মিরপুর]"},
  {"id": 386,"district_id": 47, "name": "Demra","bn_name":"ডেমরা"},
  {"id": 387,"district_id": 47, "name": "Dhamrai","bn_name":"ধামরাই"},
  {"id": 388,"district_id": 47, "name": "Dhanmondi","bn_name":"ধানমন্ডি"},
  {"id": 389,"district_id": 47, "name": "Dohar","bn_name":"দোহার"},
  {"id": 390,"district_id": 47, "name": "Gendaria [Sutrapur]","bn_name":"গেন্ডারিয়া [সূত্রাপুর]"},
  {"id": 391,"district_id": 47, "name": "Gulshan","bn_name":"গুলশান"},
  {"id": 392,"district_id": 47, "name": "Hazaribagh","bn_name":"হাজারীবাগ"},
  {"id": 393,"district_id": 47, "name": "Jatrabari [Demra]","bn_name":"যাত্রাবাড়ী [ডেমরা]"},
  {"id": 394,"district_id": 47, "name": "Kadamtali [Shyampur]","bn_name":"কদমতলী [শ্যামপুর]"},
  {"id": 395,"district_id": 47, "name": "Kafrul","bn_name":"কাফরুল"},
  {"id": 396,"district_id": 47, "name": "Kalabagan [Dhanmondi]","bn_name":"কলাবাগান [ধানমন্ডি]"},
  {"id": 397,"district_id": 47, "name": "Kamrangirchar","bn_name":"কামরাঙ্গীরচর"},
  {"id": 398,"district_id": 47, "name": "Keraniganj","bn_name":"কেরানীগঞ্জ"},
  {"id": 399,"district_id": 47, "name": "Khilgaon","bn_name":"খিলগাঁও"},
  {"id": 400,"district_id": 47, "name": "Khilkhet [Badda]","bn_name":"খিলক্ষেত [বাড্ডা]"},
  {"id": 401,"district_id": 47, "name": "Kotwali","bn_name":"কোতোয়ালি"},
  {"id": 402,"district_id": 47, "name": "Lalbagh","bn_name":"লালবাগ"},
  {"id": 403,"district_id": 47, "name": "Mirpur","bn_name":"মিরপুর"},
  {"id": 404,"district_id": 47, "name": "Mohammadpur","bn_name":"মোহাম্মদপুর"},
  {"id": 405,"district_id": 47, "name": "Motijheel","bn_name":"মতিঝিল"},
  {"id": 406,"district_id": 47, "name": "Nawabganj","bn_name":"নবাবগঞ্জ"},
  {"id": 407,"district_id": 47, "name": "New Market [Dhanmondi]","bn_name":"নিউ মার্কেট [ধানমন্ডি]"},
  {"id": 408,"district_id": 47, "name": "Pallabi","bn_name":"পল্লবী"},
  {"id": 409,"district_id": 47, "name": "Paltan [Motijheel]","bn_name":"পল্টন [মতিঝিল]"},
  {"id": 410,"district_id": 47, "name": "Ramna","bn_name":"রমনা"},
  {"id": 411,"district_id": 47, "name": "Rampura [Khilgaon]","bn_name":"রামপুরা [খিলগাঁও]"},
  {"id": 412,"district_id": 47, "name": "Sabujbagh","bn_name":"সবুজবাগ"},
  {"id": 413,"district_id": 47, "name": "Savar","bn_name":"সাভার"},
  {"id": 414,"district_id": 47, "name": "Shah Ali [Mirpur & Pallabi]","bn_name":"শাহ আলী [মিরপুর ও পল্লবী]"},
  {"id": 415,"district_id": 47, "name": "Shahbagh [Ramna]","bn_name":"শাহবাগ [রমনা]"},
  {"id": 416,"district_id": 47, "name": "Sher-e-Bangla Nagar","bn_name":"শেরেবাংলা নগর"},
  {"id": 417,"district_id": 47, "name": "Shyampur","bn_name":"শ্যামপুর"},
  {"id": 418,"district_id": 47, "name": "Sutrapur","bn_name":"সূত্রাপুর"},
  {"id": 419,"district_id": 47, "name": "Tejgaon","bn_name":"তেজগাঁও"},
  {"id": 420,"district_id": 47, "name": "Tejgaon Industrial Area","bn_name":"তেজগাঁও শিল্প এলাকা"},
  {"id": 421,"district_id": 47, "name": "Turag [Uttara]","bn_name":"তুরাগ [উত্তরা]"},
  {"id": 422,"district_id": 47, "name": "Uttara","bn_name":"উত্তরা"},
  {"id": 423,"district_id": 47, "name": "Uttar Khan","bn_name":"উত্তর খান"},

  {"id": 424,"district_id": 48, "name": "Gazaria","bn_name":"গজারিয়া"},
  {"id": 425,"district_id": 48, "name": "Lohajang","bn_name":"লৌহজং"},
  {"id": 426,"district_id": 48, "name": "Munshiganj Sadar","bn_name":"মুন্সীগঞ্জ সদর"},
  {"id": 427,"district_id": 48, "name": "Sirajdikhan","bn_name":"সিরাজদিখান"},
  {"id": 428,"district_id": 48, "name": "Sreenagar","bn_name":"শ্রীনগর"},
  {"id": 429,"district_id": 48, "name": "Tongibari","bn_name":"টঙ্গীবাড়ি"},

  {"id": 430,"district_id": 49, "name": "Baliakandi","bn_name":"বালিয়াকান্দি"},
  {"id": 431,"district_id": 49, "name": "Goalanda","bn_name":"গোয়ালন্দ"},
  {"id": 432,"district_id": 49, "name": "Kalukhali","bn_name":"কালুখালী"},
  {"id": 433,"district_id": 49, "name": "Pangsha","bn_name":"পাংশা"},
  {"id": 434,"district_id": 49, "name": "Rajbari Sadar","bn_name":"রাজবাড়ী সদর"},

  {"id": 435,"district_id": 50, "name": "Kalkini","bn_name":"কালকিনি"},
  {"id": 436,"district_id": 50, "name": "Madaripur Sadar","bn_name":"মাদারীপুর সদর"},
  {"id": 437,"district_id": 50, "name": "Rajoir","bn_name":"রাজোইর"},
  {"id": 438,"district_id": 50, "name": "Shibchar","bn_name":"শিবচর"},

  {"id": 439,"district_id": 51, "name": "Gopalganj Sadar","bn_name":"গোপালগঞ্জ সদর"},
  {"id": 440,"district_id": 51, "name": "Kashiani","bn_name":"কাশিয়ানী"},
  {"id": 441,"district_id": 51, "name": "Kotalipara","bn_name":"কোটালীপাড়া"},
  {"id": 442,"district_id": 51, "name": "Muksudpur","bn_name":"মুকসুদপুর"},
  {"id": 443,"district_id": 51, "name": "Tungipara","bn_name":"টুঙ্গিপাড়া"},

  {"id": 444,"district_id": 52, "name": "Alfadanga","bn_name":"আলফাডাঙ্গা"},
  {"id": 445,"district_id": 52, "name": "Bhanga","bn_name":"Bhanga"},
  {"id": 446,"district_id": 52, "name": "Boalmari","bn_name":"বোয়ালমারী"},
  {"id": 447,"district_id": 52, "name": "Charbhadrasan","bn_name":"চারভদ্রাসন"},
  {"id": 448,"district_id": 52, "name": "Faridpur Sadar","bn_name":"ফরিদপুর সদর"},
  {"id": 449,"district_id": 52, "name": "Madhukhali","bn_name":"মধুখালী"},
  {"id": 550,"district_id": 52, "name": "Nagarkanda","bn_name":"নগরকান্দা"},
  {"id": 551,"district_id": 52, "name": "Sadarpur","bn_name":"সদরপুর"},
  {"id": 552,"district_id": 52, "name": "Saltha","bn_name":"সালথা"},

  {"id": 553,"district_id": 53, "name": "Atwari","bn_name":"আটোয়ারী"},
  {"id": 554,"district_id": 53, "name": "Boda","bn_name":"বোদা"},
  {"id": 555,"district_id": 53, "name": "Debiganj","bn_name":"দেবীগঞ্জ"},
  {"id": 556,"district_id": 53, "name": "Panchagarh Sadar","bn_name":"পঞ্চগড় সদর"},
  {"id": 557,"district_id": 53, "name": "Tetulia","bn_name":"তেতুলিয়া"},

  {"id": 558,"district_id": 54, "name": "Biral","bn_name":"বিরল"},
  {"id": 559,"district_id": 54, "name": "Birampur","bn_name":"বিরামপুর"},
  {"id": 560,"district_id": 54, "name": "Birganj","bn_name":"বীরগঞ্জ"},
  {"id": 561,"district_id": 54, "name": "Chirirbandar","bn_name":"চিরিরবন্দর"},
  {"id": 562,"district_id": 54, "name": "Dinajpur Sadar","bn_name":"দিনাজপুর সদর"},
  {"id": 563,"district_id": 54, "name": "Ghoraghat","bn_name":"ঘোড়াঘাট"},
  {"id": 564,"district_id": 54, "name": "Hakimpur","bn_name":"হাকিমপুর"},
  {"id": 565,"district_id": 54, "name": "Kaharole","bn_name":"কাহারোল"},
  {"id": 566,"district_id": 54, "name": "Khansama","bn_name":"খানসামা"},
  {"id": 567,"district_id": 54, "name": "Nawabganj","bn_name":"নবাবগঞ্জ"},
  {"id": 568,"district_id": 54, "name": "Parbatipur","bn_name":"পার্বতীপুর"},
  {"id": 569,"district_id": 54, "name": "Phulbari","bn_name":"ফুলবাড়ী"},

  {"id": 570,"district_id": 55, "name": "Aditmari","bn_name":"আদিতমারী"},
  {"id": 571,"district_id": 55, "name": "Hatibandha","bn_name":"হাতীবান্ধা"},
  {"id": 572,"district_id": 55, "name": "Kaliganj","bn_name":"কালীগঞ্জ"},
  {"id": 573,"district_id": 55, "name": "Lalmonirhat Sadar","bn_name":"লালমনিরহাট সদর"},
  {"id": 574,"district_id": 55, "name": "Patgram","bn_name":"পাটগ্রাম"},

  {"id": 575,"district_id": 56, "name": "Dimla","bn_name":"ডিমলা"},
  {"id": 576,"district_id": 56, "name": "Domar","bn_name":"ডোমার"},
  {"id": 577,"district_id": 56, "name": "Jaldhaka","bn_name":"জলঢাকা"},
  {"id": 578,"district_id": 56, "name": "Kishoreganj","bn_name":"কিশোরগঞ্জ"},
  {"id": 579,"district_id": 56, "name": "Nilphamari Sadar","bn_name":"নীলফামারী সদর"},
  {"id": 580,"district_id": 56, "name": "Saidpur","bn_name":"সৈয়দপুর"},

  {"id": 581,"district_id": 57, "name": "Gaibandha Sadar","bn_name":"গাইবান্ধা সদর"},
  {"id": 582,"district_id": 57, "name": "Gobindaganj","bn_name":"গোবিন্দগঞ্জ"},
  {"id": 583,"district_id": 57, "name": "Palashbari","bn_name":"পলাশবাড়ী"},
  {"id": 584,"district_id": 57, "name": "Phulchhari","bn_name":"ফুলছড়ি"},
  {"id": 585,"district_id": 57, "name": "Sadullapur","bn_name":"সাদুল্লাপুর"},
  {"id": 586,"district_id": 57, "name": "Saghata","bn_name":"সাঘাটা"},
  {"id": 587,"district_id": 57, "name": "Sundarganj","bn_name":"সুন্দরগঞ্জ"},

  {"id": 588,"district_id": 58, "name": "Baliadangi","bn_name":"বালিয়াডাঙ্গী"},
  {"id": 589,"district_id": 58, "name": "Haripur","bn_name":"হরিপুর"},
  {"id": 590,"district_id": 58, "name": "Pirganj","bn_name":"পীরগঞ্জ"},
  {"id": 591,"district_id": 58, "name": "Ranisankail","bn_name":"রানীশংকৈল"},
  {"id": 592,"district_id": 58, "name": "Thakurgaon Sadar","bn_name":"ঠাকুরগাঁও সদর"},

  {"id": 593,"district_id": 59, "name": "Badarganj","bn_name":"বদরগঞ্জ"},
  {"id": 594,"district_id": 59, "name": "Gangachara","bn_name":"গঙ্গাচড়া"},
  {"id": 595,"district_id": 59, "name": "Kaunia","bn_name":"কাউনিয়া"},
  {"id": 596,"district_id": 59, "name": "Mithapukur","bn_name":"মিঠাপুকুর"},
  {"id": 597,"district_id": 59, "name": "Pirgachha","bn_name":"পীরগাছা"},
  {"id": 598,"district_id": 59, "name": "Pirganj","bn_name":"পীরগঞ্জ"},
  {"id": 599,"district_id": 59, "name": "Rangpur Sadar","bn_name":"রংপুর সদর"},
  {"id": 600,"district_id": 59, "name": "Taraganj","bn_name":"তারাগঞ্জ"},

  {"id": 601,"district_id": 60, "name": "Bhurungamari","bn_name":"ভূরুঙ্গামারী"},
  {"id": 602,"district_id": 60, "name": "Char Rajibpur","bn_name":"চর রাজীবপুর"},
  {"id": 603,"district_id": 60, "name": "Chilmari","bn_name":"চিলমারী"},
  {"id": 604,"district_id": 60, "name": "Kurigram Sadar","bn_name":"কুড়িগ্রাম সদর"},
  {"id": 605,"district_id": 60, "name": "Nageshwari","bn_name":"নাগেশ্বরী"},
  {"id": 606,"district_id": 60, "name": "Phulbari","bn_name":"ফুলবাড়ী"},
  {"id": 607,"district_id": 60, "name": "Rajarhat","bn_name":"রাজারহাট"},
  {"id": 608,"district_id": 60, "name": "Raumari","bn_name":"রৌমারী"},
  {"id": 609,"district_id": 60, "name": "Ulipur","bn_name":"উলিপুর"},

  {"id": 610,"district_id": 61, "name": "Jhenaigati","bn_name":"ঝিনাইগাতী"},
  {"id": 611,"district_id": 61, "name": "Nakla","bn_name":"নকলা"},
  {"id": 612,"district_id": 61, "name": "Nalitabari","bn_name":"নালিতাবাড়ী"},
  {"id": 613,"district_id": 61, "name": "Sherpur Sadar","bn_name":"শেরপুর সদর"},
  {"id": 614,"district_id": 61, "name": "Sreebardi","bn_name":"শ্রীবর্দী"},

  {"id": 615,"district_id": 62, "name": "Bhaluka","bn_name":"ভালুকা"},
  {"id": 616,"district_id": 62, "name": "Dhobaura","bn_name":"ধোবাউড়া"},
  {"id": 617,"district_id": 62, "name": "Fulbaria","bn_name":"ফুলবাড়িয়া"},
  {"id": 618,"district_id": 62, "name": "Gaffargaon","bn_name":"গফরগাঁও"},
  {"id": 619,"district_id": 62, "name": "Gouripur","bn_name":"গৌরীপুর"},
  {"id": 620,"district_id": 62, "name": "Haluaghat","bn_name":"হালুয়াঘাট"},
  {"id": 621,"district_id": 62, "name": "Ishwarganj","bn_name":"ঈশ্বরগঞ্জ"},
  {"id": 622,"district_id": 62, "name": "Muktagachha","bn_name":"মুক্তাগাছা"},
  {"id": 623,"district_id": 62, "name": "Mymensingh Sadar","bn_name":"ময়মনসিংহ সদর"},
  {"id": 624,"district_id": 62, "name": "Nandail","bn_name":"নান্দাইল"},
  {"id": 625,"district_id": 62, "name": "Phulpur","bn_name":"ফুলপুর"},
  {"id": 626,"district_id": 62, "name": "Trishal","bn_name":"ত্রিশাল"},

  {"id": 627,"district_id": 63, "name": "Bakshiganj","bn_name":"বকশীগঞ্জ"},
  {"id": 628,"district_id": 63, "name": "Dewanganj","bn_name":"দেওয়ানগঞ্জ"},
  {"id": 629,"district_id": 63, "name": "Islampur","bn_name":"ইসলামপুর"},
  {"id": 630,"district_id": 63, "name": "Jamalpur Sadar","bn_name":"জামালপুর সদর"},
  {"id": 631,"district_id": 63, "name": "Madarganj","bn_name":"মাদারগঞ্জ"},
  {"id": 632,"district_id": 63, "name": "Melandaha","bn_name":"মেলান্দহ"},
  {"id": 633,"district_id": 63, "name": "Sarishabari","bn_name":"সরিষাবাড়ী"},

  {"id": 634,"district_id": 64, "name": "Atpara","bn_name":"আটপাড়া"},
  {"id": 635,"district_id": 64, "name": "Barhatta","bn_name":"বারহাট্টা"},
  {"id": 636,"district_id": 64, "name": "Durgapur","bn_name":"দুর্গাপুর"},
  {"id": 637,"district_id": 64, "name": "Kalmakanda","bn_name":"কলমাকান্দা"},
  {"id": 638,"district_id": 64, "name": "Kendua","bn_name":"কেন্দুয়া"},
  {"id": 639,"district_id": 64, "name": "Khaliajuri","bn_name":"খালিয়াজুরী"},
  {"id": 640,"district_id": 64, "name": "Madan","bn_name":"মদন"},
  {"id": 641,"district_id": 64, "name": "Mohanganj","bn_name":"মোহনগঞ্জ"},
  {"id": 642,"district_id": 64, "name": "Netrakona Sadar","bn_name":"নেত্রকোনা সদর"},
  {"id": 643,"district_id": 64, "name": "Purbadhala","bn_name":"পূর্বধলা"}

]

